EUTELSAT 21B            
1 38992U 12062B   25269.15113323  .00000134  00000+0  00000+0 0  9991
2 38992   0.0697 354.0716 0002843 193.6551 253.4922  1.00269604 47183
EUTELSAT 70B            
1 39020U 12069A   25269.16083995 -.00000040  00000+0  00000+0 0  9990
2 39020   0.0665   6.1844 0004048 182.8297 304.6057  1.00271647 46866
EUTELSAT 117 WEST A     
1 39122U 13012A   25269.12374645 -.00000009  00000+0  00000+0 0  9998
2 39122   0.0145 131.6540 0002918  58.1667 103.1139  1.00272707 45780
EUTELSAT 7B             
1 39163U 13022A   25269.14827322  .00000052  00000+0  00000+0 0  9998
2 39163   0.0673 358.0825 0000801   6.3979  61.1074  1.00271203 45301
EXPRESS-AT1             
1 39612U 14010A   25269.22922024  .00000082  00000+0  00000+0 0  9992
2 39612   0.0193 203.7462 0000852 263.8889  36.1925  1.00274656 42170
EXPRESS-AT2             
1 39613U 14010B   25269.24594698 -.00000277  00000+0  00000+0 0  9994
2 39613   0.0182 214.8862 0000226 283.7507  95.0675  1.00271531 41858
EUTELSAT 3B             
1 39773U 14030A   25269.21882020  .00000024  00000+0  00000+0 0  9998
2 39773   0.0636   5.8897 0004315 175.0959 266.1627  1.00272402 41421
EUTELSAT 115 WEST B     
1 40425U 15010B   25269.05272103 -.00000022  00000+0  00000+0 0  9999
2 40425   0.0260  32.5076 0000119 234.4357   2.2635  1.00272572 38743
